{
"type": "FeatureCollection",
"name": "targetedGrowthAreas_jcia",
"crs": { "type": "name", "properties": { "name": "urn:ogc:def:crs:OGC:1.3:CRS84" } },
"features": [
{ "type": "Feature", "properties": { "OBJECTID": 8.0, "LAND_USE": "Intense Commercial/Low Intensity Industrial" }, "geometry": { "type": "MultiPolygon", "coordinates": [ [ [ [ -91.808994436844571, 41.680215865027954 ], [ -91.809046155158583, 41.683837992372105 ], [ -91.809104912867497, 41.687051220653977 ], [ -91.808474594444363, 41.688327229562475 ], [ -91.808457285942907, 41.690813461050638 ], [ -91.808432470013187, 41.694377645953132 ], [ -91.802535411557898, 41.694573668012119 ], [ -91.79876481467852, 41.694657394053671 ], [ -91.798793794091893, 41.691721071479073 ], [ -91.798786237245039, 41.690989457675656 ], [ -91.798806714955134, 41.688091454722539 ], [ -91.7991276113152, 41.687163484298665 ], [ -91.799248130714446, 41.683749604245875 ], [ -91.799276610720355, 41.680127212833426 ], [ -91.804299254310152, 41.680174425738493 ], [ -91.808994436844571, 41.680215865027954 ] ] ] ] } },
{ "type": "Feature", "properties": { "OBJECTID": 9.0, "LAND_USE": "Commercial" }, "geometry": { "type": "MultiPolygon", "coordinates": [ [ [ [ -91.430414214427032, 41.496435100538022 ], [ -91.430410153940002, 41.499825298245966 ], [ -91.425809640141935, 41.499753446151423 ], [ -91.425444686061823, 41.499742896450172 ], [ -91.420717063724098, 41.499712071953695 ], [ -91.420750560609335, 41.496970759002593 ], [ -91.420756109936548, 41.496517937777199 ], [ -91.420759584294117, 41.496239536850048 ], [ -91.420762368922937, 41.495904391620563 ], [ -91.420776572847529, 41.492435443963004 ], [ -91.423263124614735, 41.492466628970654 ], [ -91.423315680009537, 41.493986874388121 ], [ -91.425043063331373, 41.493988537562828 ], [ -91.425031378161961, 41.495086228807232 ], [ -91.425496358593477, 41.495086726761237 ], [ -91.425499085315963, 41.493438968393455 ], [ -91.425688057446607, 41.493441708061972 ], [ -91.425690185007852, 41.492471995240315 ], [ -91.430439479563432, 41.492528705481405 ], [ -91.430414214427032, 41.496435100538022 ] ] ] ] } },
{ "type": "Feature", "properties": { "OBJECTID": 18.0, "LAND_USE": "Commercial" }, "geometry": { "type": "MultiPolygon", "coordinates": [ [ [ [ -91.705013239526494, 41.543928651116829 ], [ -91.705084950091276, 41.540489642746138 ], [ -91.705231102588002, 41.540490010388325 ], [ -91.705218555268686, 41.540208326633739 ], [ -91.705220918792378, 41.538496957520366 ], [ -91.70930501920148, 41.538523489367741 ], [ -91.709808021722665, 41.538524209784519 ], [ -91.709843098307374, 41.536695393137649 ], [ -91.712893838498232, 41.536712234425998 ], [ -91.71335480865649, 41.53671072004839 ], [ -91.718050410285997, 41.536778409182361 ], [ -91.718016956649734, 41.539656927331372 ], [ -91.718006793361923, 41.540278468490953 ], [ -91.717994626944986, 41.54059501087518 ], [ -91.717919019755612, 41.544037814822225 ], [ -91.717834464431022, 41.54766487136559 ], [ -91.715643120760205, 41.547624513332096 ], [ -91.713212108124907, 41.547580837409406 ], [ -91.712779313703848, 41.547573864242565 ], [ -91.712006815271991, 41.547566186108014 ], [ -91.710688101828978, 41.547553002469783 ], [ -91.709620517911588, 41.547541672215978 ], [ -91.709698595750709, 41.543947637483747 ], [ -91.705013239526494, 41.543928651116829 ] ] ] ] } },
{ "type": "Feature", "properties": { "OBJECTID": 90.0, "LAND_USE": "Commercial" }, "geometry": { "type": "MultiPolygon", "coordinates": [ [ [ [ -91.67609906122226, 41.831873637183818 ], [ -91.675606644037131, 41.831086337210245 ], [ -91.675630447349107, 41.829692893097047 ], [ -91.679355366750642, 41.829627478053197 ], [ -91.67933171343428, 41.832284432364965 ], [ -91.679306368621994, 41.832465786999499 ], [ -91.680175719419438, 41.832627285832466 ], [ -91.680223531012814, 41.832642644273086 ], [ -91.680267578636929, 41.832663363196339 ], [ -91.680306796086853, 41.832688941087305 ], [ -91.680340234071949, 41.832718758816021 ], [ -91.680367083194085, 41.832752094623544 ], [ -91.680386693540129, 41.83278814159214 ], [ -91.680398590414256, 41.832826027177198 ], [ -91.680417532291017, 41.833010410882309 ], [ -91.680410940881302, 41.835072899292655 ], [ -91.6774546816835, 41.835095376409349 ], [ -91.677456799061702, 41.83693576869171 ], [ -91.677455413641653, 41.837286271102819 ], [ -91.677592453586499, 41.838749597763957 ], [ -91.6786934459751, 41.838730430701908 ], [ -91.678671762211678, 41.842998323856229 ], [ -91.677570713638119, 41.843015542211425 ], [ -91.677545980480801, 41.845810260084278 ], [ -91.680495939896645, 41.845804149526238 ], [ -91.68050730458657, 41.846778171698723 ], [ -91.6805160961827, 41.847601398675259 ], [ -91.679415241744849, 41.847616333385311 ], [ -91.679415533341839, 41.847643773997056 ], [ -91.677500877500322, 41.84766972104044 ], [ -91.677586951304249, 41.847594265440364 ], [ -91.675789935909862, 41.847398380247697 ], [ -91.676095428502038, 41.844608574126489 ], [ -91.676073703099576, 41.844221931640433 ], [ -91.676009930241946, 41.843039933372744 ], [ -91.675920688270423, 41.841278387466339 ], [ -91.675876851220906, 41.840255887164396 ], [ -91.675859261446419, 41.839606872912462 ], [ -91.675839944687539, 41.838894333903589 ], [ -91.675833142405608, 41.838780205094011 ], [ -91.67580415153121, 41.836964159721788 ], [ -91.675771596881447, 41.835108140667138 ], [ -91.675786871084668, 41.832922527425573 ], [ -91.675785898107378, 41.832309062617874 ], [ -91.67603407917197, 41.832049910188061 ], [ -91.67609906122226, 41.831873637183818 ] ] ] ] } },
{ "type": "Feature", "properties": { "OBJECTID": 91.0, "LAND_USE": "Commercial" }, "geometry": { "type": "MultiPolygon", "coordinates": [ [ [ [ -91.672697656988817, 41.834787161005544 ], [ -91.675347654547551, 41.83480003008426 ], [ -91.675332509095838, 41.835519528286504 ], [ -91.675305998542612, 41.836778888908803 ], [ -91.675300771189541, 41.836888726330351 ], [ -91.67526929683018, 41.83756926428844 ], [ -91.67525774692993, 41.837842815363246 ], [ -91.675219787272695, 41.838605577840823 ], [ -91.675211576117761, 41.838770204682788 ], [ -91.675189815417596, 41.838872761247934 ], [ -91.675073089445945, 41.839422755238466 ], [ -91.675020863375138, 41.839655362352801 ], [ -91.675194543224904, 41.840587278641465 ], [ -91.675158104105549, 41.841273192237594 ], [ -91.675147018008161, 41.841273139863596 ], [ -91.675115043570372, 41.841735408118829 ], [ -91.674998995118344, 41.843424498112014 ], [ -91.674954055368516, 41.844225138796432 ], [ -91.674936018470504, 41.844705544660613 ], [ -91.675038778357219, 41.846999686940343 ], [ -91.675053973156068, 41.84728810010391 ], [ -91.67507890485372, 41.847761329781598 ], [ -91.674347423430106, 41.847763084138307 ], [ -91.673881318433999, 41.847764199848179 ], [ -91.673023167992895, 41.847758874628703 ], [ -91.672655830853955, 41.847691815004417 ], [ -91.672288185267959, 41.847560210104113 ], [ -91.670666525905403, 41.847605705841552 ], [ -91.670152397724195, 41.847603849539901 ], [ -91.669669724179982, 41.847392623576837 ], [ -91.668540610515279, 41.845922124157823 ], [ -91.667203704822143, 41.844180906780437 ], [ -91.670682385617425, 41.844200823251711 ], [ -91.672640162740393, 41.844204887510472 ], [ -91.672697656988817, 41.834787161005544 ] ] ] ] } },
{ "type": "Feature", "properties": { "OBJECTID": 92.0, "LAND_USE": "Intense Commercial/Low Intensity Industrial" }, "geometry": { "type": "MultiPolygon", "coordinates": [ [ [ [ -91.668805981285402, 41.851797635227221 ], [ -91.669061918718199, 41.851743265407464 ], [ -91.669068419163679, 41.85150693227812 ], [ -91.669076763071089, 41.851203544963198 ], [ -91.669025496039595, 41.850714853551686 ], [ -91.668887606741492, 41.850393646519542 ], [ -91.668940427630105, 41.85023779938799 ], [ -91.669001193231423, 41.850083579234841 ], [ -91.669069814315591, 41.84993121237882 ], [ -91.669790751769298, 41.848427527603803 ], [ -91.670272636358888, 41.848196756912664 ], [ -91.670666850228571, 41.848195221091451 ], [ -91.671838104870872, 41.848191741401926 ], [ -91.67238808741412, 41.84808971503945 ], [ -91.672989786333275, 41.848085006060998 ], [ -91.673206360763501, 41.848057086721127 ], [ -91.673854454183669, 41.848055642270189 ], [ -91.673856054046098, 41.847973325827034 ], [ -91.675082451106022, 41.847970610810307 ], [ -91.675080295709961, 41.848854235058148 ], [ -91.675074373154189, 41.851506537406557 ], [ -91.675071199070501, 41.852408080993705 ], [ -91.670686238810475, 41.852357131640339 ], [ -91.668880950201142, 41.852336107454668 ], [ -91.668805981285402, 41.851797635227221 ] ] ] ] } },
{ "type": "Feature", "properties": { "OBJECTID": 93.0, "LAND_USE": "Intense Commercial/Low Intensity Industrial" }, "geometry": { "type": "MultiPolygon", "coordinates": [ [ [ [ -91.675719566881966, 41.847980577014575 ], [ -91.677624077368378, 41.847963380186023 ], [ -91.677867914851305, 41.848083152607579 ], [ -91.678334083065934, 41.84795675546588 ], [ -91.680637575547777, 41.84791592129708 ], [ -91.68061850986949, 41.849379046673739 ], [ -91.677620120920025, 41.84939284287276 ], [ -91.677632387221593, 41.861695373843339 ], [ -91.675647506045706, 41.861672309238777 ], [ -91.675638468890909, 41.858764390665968 ], [ -91.675637255894074, 41.858087272418665 ], [ -91.675666323457222, 41.855141691813941 ], [ -91.675716931357201, 41.85150444588907 ], [ -91.675719514564534, 41.851318781006931 ], [ -91.675721431615358, 41.850386720563044 ], [ -91.675723390316051, 41.849414277661729 ], [ -91.675719566881966, 41.847980577014575 ] ] ] ] } },
{ "type": "Feature", "properties": { "OBJECTID": 95.0, "LAND_USE": "Industrial" }, "geometry": { "type": "MultiPolygon", "coordinates": [ [ [ [ -91.675043212825301, 41.861665032598715 ], [ -91.669459858464677, 41.861597368662615 ], [ -91.669427410570833, 41.861244147336933 ], [ -91.669429233063127, 41.861103650727969 ], [ -91.66928449126317, 41.859295653610644 ], [ -91.669301913298, 41.859005942963826 ], [ -91.669297744892773, 41.858841129900483 ], [ -91.669180956940735, 41.858561072403582 ], [ -91.669177941865442, 41.858528305626621 ], [ -91.669146680467804, 41.85818776909143 ], [ -91.669095333694969, 41.855911838064543 ], [ -91.669081491757552, 41.853534199286408 ], [ -91.668880950201142, 41.852336107454668 ], [ -91.670686238810475, 41.852357131640339 ], [ -91.675071199070501, 41.852408080993705 ], [ -91.675075736816467, 41.855957882983027 ], [ -91.675049768979378, 41.858350510369199 ], [ -91.67504728196252, 41.858599445514351 ], [ -91.675043212825301, 41.861665032598715 ] ] ] ] } },
{ "type": "Feature", "properties": { "OBJECTID": 96.0, "LAND_USE": "Commercial" }, "geometry": { "type": "MultiPolygon", "coordinates": [ [ [ [ -91.665957988659301, 41.851508508928831 ], [ -91.660775218993891, 41.851467136047916 ], [ -91.660712641598877, 41.84795891918759 ], [ -91.661695979815477, 41.847967562794814 ], [ -91.661695119689625, 41.848022443136543 ], [ -91.662319001391836, 41.848027921382773 ], [ -91.662739194924995, 41.847976724237974 ], [ -91.663745046706396, 41.848093402931411 ], [ -91.664063315426802, 41.848130319731538 ], [ -91.664568348228372, 41.848188877663908 ], [ -91.66505657651021, 41.848392829164979 ], [ -91.665704793990301, 41.849281907977669 ], [ -91.665965532938358, 41.849630287010655 ], [ -91.665957988659301, 41.851508508928831 ] ] ] ] } },
{ "type": "Feature", "properties": { "OBJECTID": 103.0, "LAND_USE": "Commercial" }, "geometry": { "type": "MultiPolygon", "coordinates": [ [ [ [ -91.475425792972501, 41.740204487757644 ], [ -91.474391414696285, 41.74019600954221 ], [ -91.473806481326875, 41.740196955257161 ], [ -91.473117673376947, 41.740195422926476 ], [ -91.468260430230686, 41.740184335967598 ], [ -91.46827201651287, 41.739301254708799 ], [ -91.467945119937156, 41.739356206826699 ], [ -91.467953630604669, 41.739073532224957 ], [ -91.467957727802585, 41.73799205325296 ], [ -91.468289181012551, 41.737992756073666 ], [ -91.468308343883251, 41.736532037171081 ], [ -91.468747980504105, 41.736534185975991 ], [ -91.470961822784247, 41.736544977843991 ], [ -91.473160073284916, 41.73655565165167 ], [ -91.473633537776777, 41.736558716491125 ], [ -91.474350016328273, 41.736563332814953 ], [ -91.475618538153284, 41.736570983118092 ], [ -91.47557702180687, 41.73748583871442 ], [ -91.475558351236245, 41.737897244391952 ], [ -91.47578311637406, 41.738090601230105 ], [ -91.475775513007662, 41.738409252616385 ], [ -91.475636301326574, 41.738407390286447 ], [ -91.475583084337302, 41.738542433013599 ], [ -91.475539006983283, 41.740205415189102 ], [ -91.475425792972501, 41.740204487757644 ] ] ] ] } },
{ "type": "Feature", "properties": { "OBJECTID": 105.0, "LAND_USE": "Industrial" }, "geometry": { "type": "MultiPolygon", "coordinates": [ [ [ [ -91.429514423735853, 41.670901399821467 ], [ -91.429583393564883, 41.66824331463058 ], [ -91.430921645857026, 41.668226143397568 ], [ -91.434269309571931, 41.6686039940179 ], [ -91.435944933098355, 41.66880982536329 ], [ -91.437088342057834, 41.669102903164408 ], [ -91.437631287179087, 41.669242065402372 ], [ -91.43792267977706, 41.669380608646158 ], [ -91.439912097112952, 41.670289838595934 ], [ -91.440347541595173, 41.67088162486683 ], [ -91.438826535627371, 41.67091173807777 ], [ -91.438108418894899, 41.670810431207393 ], [ -91.437934263185113, 41.670808731142301 ], [ -91.437110536721718, 41.670811562354537 ], [ -91.434193051095491, 41.670794044077809 ], [ -91.434188497682953, 41.670924803586544 ], [ -91.429514423735853, 41.670901399821467 ] ] ] ] } },
{ "type": "Feature", "properties": { "OBJECTID": 110.0, "LAND_USE": "Intense Commercial/Low Intensity Industrial" }, "geometry": { "type": "MultiPolygon", "coordinates": [ [ [ [ -91.611078466328593, 41.624359539118515 ], [ -91.610895599271871, 41.624360985286266 ], [ -91.610211671424167, 41.624366389424125 ], [ -91.607725282263701, 41.624386004041938 ], [ -91.607457673315011, 41.624388111957487 ], [ -91.604448183683914, 41.624411777312993 ], [ -91.60318842296121, 41.624421660973482 ], [ -91.603354031450223, 41.621366488559126 ], [ -91.603366243349399, 41.621141184746278 ], [ -91.603465007955904, 41.621142745963191 ], [ -91.603474886445539, 41.621022623140398 ], [ -91.603492526131134, 41.620903428978473 ], [ -91.603518353741578, 41.620785078430124 ], [ -91.603552300166541, 41.620667887978293 ], [ -91.603628617048713, 41.620433721884098 ], [ -91.60352747819141, 41.620432123740301 ], [ -91.604039531680883, 41.618861506932681 ], [ -91.608431749142071, 41.61889498545284 ], [ -91.609435946032903, 41.618902615819934 ], [ -91.609394706709693, 41.619552097339835 ], [ -91.614119144688686, 41.619578789614998 ], [ -91.614081489928324, 41.620989616613521 ], [ -91.614021614669198, 41.62412805182538 ], [ -91.613732367872302, 41.624178061201391 ], [ -91.613441420064021, 41.624222167570011 ], [ -91.613148985204816, 41.62426033849561 ], [ -91.612855278350068, 41.624292545907274 ], [ -91.612560515491523, 41.624318766119714 ], [ -91.612264913398477, 41.624338979850613 ], [ -91.611968689458038, 41.624353172234706 ], [ -91.611672061515165, 41.624361332834908 ], [ -91.611375247712274, 41.624363455649878 ], [ -91.611078466328593, 41.624359539118515 ] ] ] ] } },
{ "type": "Feature", "properties": { "OBJECTID": 111.0, "LAND_USE": "Commercial" }, "geometry": { "type": "MultiPolygon", "coordinates": [ [ [ [ -91.599728501884584, 41.624495825139434 ], [ -91.599773289114239, 41.620903208879461 ], [ -91.599829790680786, 41.617282564009685 ], [ -91.604607756341366, 41.617315297515539 ], [ -91.60461692938172, 41.616840142431172 ], [ -91.604676185178178, 41.613770569586251 ], [ -91.608496395269924, 41.613792928812771 ], [ -91.606047991179182, 41.616439183505406 ], [ -91.605603438632357, 41.616846538300621 ], [ -91.605078565929176, 41.617317708917049 ], [ -91.604599492789262, 41.617743305523561 ], [ -91.604488384605389, 41.617835587142118 ], [ -91.604383667654531, 41.617931985610419 ], [ -91.604285612435618, 41.618032251943518 ], [ -91.604194472244842, 41.61813612716518 ], [ -91.604110482520994, 41.618243342976619 ], [ -91.604033860237266, 41.618353622449227 ], [ -91.603964803340546, 41.618466680739971 ], [ -91.60390349023973, 41.618582225826842 ], [ -91.603850079344696, 41.618699959263026 ], [ -91.603804708656625, 41.618819576947772 ], [ -91.603221892060972, 41.620607231888819 ], [ -91.603146294741435, 41.620923737193159 ], [ -91.602945115290197, 41.62444705756036 ], [ -91.60235714528703, 41.624508966717372 ], [ -91.601436176533824, 41.624644304429879 ], [ -91.600980668101244, 41.624729031589482 ], [ -91.599723272689062, 41.624826993560369 ], [ -91.599728501884584, 41.624495825139434 ] ] ] ] } },
{ "type": "Feature", "properties": { "OBJECTID": 141.0, "LAND_USE": "Commercial" }, "geometry": { "type": "MultiPolygon", "coordinates": [ [ [ [ -91.543250127140439, 41.61340198669555 ], [ -91.54319724853481, 41.61320578211587 ], [ -91.542998625666129, 41.613203828556514 ], [ -91.542706400314344, 41.612109826446414 ], [ -91.542566904734613, 41.611436702772828 ], [ -91.54274849826416, 41.611420688589469 ], [ -91.542631855017405, 41.610851281557274 ], [ -91.54250047953694, 41.61036294954463 ], [ -91.542373973911765, 41.609922009991777 ], [ -91.542288430188961, 41.609579692023232 ], [ -91.543411350866606, 41.609587416031893 ], [ -91.543614859423499, 41.609915319926408 ], [ -91.545390915245676, 41.610660158976245 ], [ -91.545657276426454, 41.611308031669736 ], [ -91.54605517527132, 41.611403376713049 ], [ -91.548078294330082, 41.611820903203224 ], [ -91.547889421457029, 41.612520225986742 ], [ -91.547690665684129, 41.613256128880373 ], [ -91.547982291918728, 41.613258795319382 ], [ -91.548979378380636, 41.613268860344689 ], [ -91.549074437372724, 41.61333264738667 ], [ -91.548826617320074, 41.614238698986831 ], [ -91.548086213936756, 41.615123494610145 ], [ -91.54770827062876, 41.61532603094426 ], [ -91.547543786159494, 41.615414177188399 ], [ -91.546488585158087, 41.615876237406894 ], [ -91.546068380872185, 41.616060235622705 ], [ -91.545016190820348, 41.617020153141112 ], [ -91.54415110237764, 41.616386314971031 ], [ -91.543899009066436, 41.615926418961244 ], [ -91.543812968556097, 41.615584812409431 ], [ -91.54370718949113, 41.615152034436015 ], [ -91.543627995895179, 41.614828022405874 ], [ -91.543578797036574, 41.614626730508782 ], [ -91.543508325094706, 41.614359992666664 ], [ -91.543312481717876, 41.613633346556249 ], [ -91.543250127140439, 41.61340198669555 ] ] ] ] } },
{ "type": "Feature", "properties": { "OBJECTID": 142.0, "LAND_USE": "Intense Commercial/Low Intensity Industrial" }, "geometry": { "type": "MultiPolygon", "coordinates": [ [ [ [ -91.667829805180659, 41.855897196649828 ], [ -91.665961844325551, 41.855899390768691 ], [ -91.665961243734429, 41.855217628591618 ], [ -91.665957988659301, 41.851508508928831 ], [ -91.66595706728836, 41.850459051546714 ], [ -91.665965532938358, 41.849630287010655 ], [ -91.666221744802542, 41.849975891543423 ], [ -91.666457066850739, 41.850297212343591 ], [ -91.666869294612113, 41.850860078711392 ], [ -91.667000826308538, 41.851142962834039 ], [ -91.667284803101467, 41.851753703176627 ], [ -91.667383326265892, 41.852160620897294 ], [ -91.66736741836506, 41.85228256696081 ], [ -91.667465349686779, 41.852758739411065 ], [ -91.667544227885799, 41.852875505812676 ], [ -91.667628429549438, 41.853768305828389 ], [ -91.667604794905543, 41.853918119118411 ], [ -91.667615957028659, 41.8540358241601 ], [ -91.667659753232968, 41.854099522320368 ], [ -91.667687192216405, 41.854389552751954 ], [ -91.667671637813797, 41.854428900787198 ], [ -91.667679422219038, 41.854511019088754 ], [ -91.667701946882559, 41.854545580921794 ], [ -91.667786984543326, 41.855444515978199 ], [ -91.667829805180659, 41.855897196649828 ] ] ] ] } },
{ "type": "Feature", "properties": { "OBJECTID": 145.0, "LAND_USE": "Commercial" }, "geometry": { "type": "MultiPolygon", "coordinates": [ [ [ [ -91.438986001948123, 41.667373893097434 ], [ -91.439043276113949, 41.663835596333165 ], [ -91.443815126009568, 41.66382614204219 ], [ -91.446221990705425, 41.663843251067078 ], [ -91.450988885532738, 41.663825252451304 ], [ -91.451729452381784, 41.66382566223983 ], [ -91.45240026850486, 41.663826028278102 ], [ -91.453445859460302, 41.663826644215256 ], [ -91.453409388285891, 41.665421701105636 ], [ -91.453364800897518, 41.667371550248021 ], [ -91.453328898283573, 41.667371441768189 ], [ -91.453277830204144, 41.67079019049109 ], [ -91.454759921331288, 41.67079287700949 ], [ -91.454785663690828, 41.671185262423997 ], [ -91.454778698464011, 41.672873618844463 ], [ -91.457605305267421, 41.6738959057719 ], [ -91.458071302718992, 41.674064427837216 ], [ -91.458588998675879, 41.674251642411008 ], [ -91.458587539518689, 41.674618580370321 ], [ -91.458582115513082, 41.67598202460853 ], [ -91.454771643970901, 41.674583458938095 ], [ -91.453593901377573, 41.674072727612455 ], [ -91.452568311666653, 41.673772717262523 ], [ -91.451253737097133, 41.673289388309946 ], [ -91.449504776023744, 41.672565114983186 ], [ -91.449391594904682, 41.672515851779714 ], [ -91.449282254285521, 41.672461932749066 ], [ -91.449177094494033, 41.672403525721371 ], [ -91.449076442841999, 41.672340812495833 ], [ -91.448980612606405, 41.672273988274675 ], [ -91.448243734457392, 41.671699201321211 ], [ -91.448352706069272, 41.671309973087993 ], [ -91.448497190951855, 41.670586125998426 ], [ -91.446607985454605, 41.670472472767536 ], [ -91.446253263798383, 41.670595210653403 ], [ -91.444168689095719, 41.670508873086412 ], [ -91.443698241183824, 41.670429279739565 ], [ -91.441163526519574, 41.669534766301233 ], [ -91.438963918175247, 41.668738072968694 ], [ -91.438986001948123, 41.667373893097434 ] ] ] ] } },
{ "type": "Feature", "properties": { "OBJECTID": 146.0, "LAND_USE": "Commercial" }, "geometry": { "type": "MultiPolygon", "coordinates": [ [ [ [ -91.438930643897137, 41.671444426786223 ], [ -91.438931214725628, 41.671781153491153 ], [ -91.438956228843026, 41.674615015381711 ], [ -91.434249207594462, 41.674642493538919 ], [ -91.429601350506289, 41.674604359633513 ], [ -91.429514944734322, 41.671082535644373 ], [ -91.43418799653945, 41.671105929957186 ], [ -91.434190703990012, 41.671262366897508 ], [ -91.43735792748393, 41.67126885253299 ], [ -91.437618400207484, 41.671269160315497 ], [ -91.438040062693375, 41.671293666277357 ], [ -91.43827756410515, 41.671317940592552 ], [ -91.438486325322643, 41.671348696085431 ], [ -91.438718241613543, 41.671394968916232 ], [ -91.438774156324911, 41.671406124353346 ], [ -91.438930643897137, 41.671444426786223 ] ] ] ] } }
]
}
