{
"type": "FeatureCollection",
"name": "villages_jcia",
"crs": { "type": "name", "properties": { "name": "urn:ogc:def:crs:OGC:1.3:CRS84" } },
"features": [
{ "type": "Feature", "properties": { "OBJECTID": 1, "VILLAGE": "COSGROVE", "Shape_Length": 14895.93259138547, "Shape_Area": 11488537.075590605, "V_AREA": 264 }, "geometry": { "type": "MultiPolygon", "coordinates": [ [ [ [ -91.745701478286321, 41.647343315735895 ], [ -91.740836662722359, 41.647339015210953 ], [ -91.736117412856075, 41.647333363248691 ], [ -91.735751575589731, 41.647329483345672 ], [ -91.731106084456258, 41.647246404814368 ], [ -91.731147289036628, 41.643679614689603 ], [ -91.731147807638692, 41.643494795342114 ], [ -91.731149307785216, 41.640008003545411 ], [ -91.7358059328689, 41.640084001023688 ], [ -91.735801736377937, 41.63964956597394 ], [ -91.736106570352192, 41.639656393434414 ], [ -91.737765585975993, 41.639685745702607 ], [ -91.737769440754263, 41.640073580795928 ], [ -91.739873007407297, 41.640104670659582 ], [ -91.740323165746105, 41.640111319250849 ], [ -91.740855880107333, 41.64011918362489 ], [ -91.740859402889228, 41.638262040635027 ], [ -91.745712811909399, 41.638254057144742 ], [ -91.745716435981763, 41.640075167506915 ], [ -91.745723399546733, 41.643580253562398 ], [ -91.745722833069195, 41.643854691374614 ], [ -91.745701478286321, 41.647343315735895 ] ] ] ] } },
{ "type": "Feature", "properties": { "OBJECTID": 2, "VILLAGE": "JOETOWN", "Shape_Length": 36460.563522219236, "Shape_Area": 36079489.173424497, "V_AREA": 828 }, "geometry": { "type": "MultiPolygon", "coordinates": [ [ [ [ -91.795218940544743, 41.537116386783296 ], [ -91.800042195444703, 41.537051544312526 ], [ -91.800028180839462, 41.539704529575012 ], [ -91.800023664452766, 41.540559616763638 ], [ -91.800023418164187, 41.540606127277393 ], [ -91.800018580124529, 41.540833970867588 ], [ -91.79623665822416, 41.540861049093671 ], [ -91.79557299035055, 41.540868156231248 ], [ -91.79518853420258, 41.540865984715445 ], [ -91.794472438495006, 41.54086090034469 ], [ -91.794473531980842, 41.540907548616445 ], [ -91.793990974400913, 41.540912107725262 ], [ -91.790479562684268, 41.540945224946483 ], [ -91.790239363034985, 41.54091478787474 ], [ -91.790202627625447, 41.541886749995541 ], [ -91.790048123208408, 41.54180039843898 ], [ -91.789178795210375, 41.541791872393354 ], [ -91.788577163719168, 41.541785967584843 ], [ -91.787772050132929, 41.541778044380202 ], [ -91.787421558906203, 41.541490642929574 ], [ -91.787068140105916, 41.540943465917984 ], [ -91.785540230428026, 41.540940147443493 ], [ -91.780724070941076, 41.540924721656332 ], [ -91.780545540407616, 41.544657293364118 ], [ -91.776259306989914, 41.544552745341143 ], [ -91.775672949625701, 41.545099540992908 ], [ -91.775592711682435, 41.548298432825327 ], [ -91.77228601728973, 41.5481407048158 ], [ -91.772284871418833, 41.548256572315154 ], [ -91.770944132754579, 41.54825036324042 ], [ -91.770702924391728, 41.548250939297915 ], [ -91.770704395318617, 41.548071488984874 ], [ -91.769108178886668, 41.548078219263637 ], [ -91.768756621721934, 41.548079699072481 ], [ -91.770866216647761, 41.546542724780693 ], [ -91.770923305512412, 41.544422604305332 ], [ -91.771017845483982, 41.540911467384419 ], [ -91.770913655787552, 41.540641781105187 ], [ -91.770961349000487, 41.537134885052602 ], [ -91.771106867016542, 41.529881939825856 ], [ -91.771346021306442, 41.529971635410945 ], [ -91.776014778545274, 41.529986346839245 ], [ -91.778824503145358, 41.53000365659539 ], [ -91.779541633212219, 41.530007138408706 ], [ -91.779841100031604, 41.530000344785762 ], [ -91.780183906629574, 41.529999240388129 ], [ -91.780353301212898, 41.529988122434077 ], [ -91.780403937865756, 41.529980172570376 ], [ -91.780455595416328, 41.529978115402066 ], [ -91.780507066637682, 41.529981999004811 ], [ -91.780557148657195, 41.529991732619507 ], [ -91.780604671066527, 41.530007088773395 ], [ -91.780648523273015, 41.530027708595725 ], [ -91.780687680453426, 41.530053110204335 ], [ -91.780721227503562, 41.530082699966833 ], [ -91.780748380424129, 41.530115786373351 ], [ -91.780748078447914, 41.530309907220399 ], [ -91.780991126827161, 41.5303295594464 ], [ -91.784411413310735, 41.530363263072886 ], [ -91.785598372561608, 41.530353252334216 ], [ -91.785602026913452, 41.529920089010041 ], [ -91.785843081751523, 41.529920192105877 ], [ -91.788128701271361, 41.529921148022844 ], [ -91.790550545288781, 41.529922111203071 ], [ -91.794644965453671, 41.529883833004384 ], [ -91.79541066123555, 41.529294875177925 ], [ -91.795391358780222, 41.526245949374044 ], [ -91.799036950553983, 41.526255525494925 ], [ -91.799477057524157, 41.526255169245374 ], [ -91.800217156517107, 41.525735863411427 ], [ -91.800211686535619, 41.526256811132583 ], [ -91.800204414532445, 41.526630930680341 ], [ -91.800142195124749, 41.529832215185138 ], [ -91.796085816221208, 41.52987032918022 ], [ -91.796505400854173, 41.531644184622678 ], [ -91.796550700730577, 41.531643785937057 ], [ -91.796528539117602, 41.53345966601804 ], [ -91.796523009631414, 41.533912726919773 ], [ -91.796454845914695, 41.533913025969731 ], [ -91.795256837989001, 41.53391826716171 ], [ -91.795221608345315, 41.536891270341414 ], [ -91.795218940544743, 41.537116386783296 ] ] ] ] } },
{ "type": "Feature", "properties": { "OBJECTID": 3, "VILLAGE": "MORSE", "Shape_Length": 26903.145910397281, "Shape_Area": 33727761.791370526, "V_AREA": 774 }, "geometry": { "type": "MultiPolygon", "coordinates": [ [ [ [ -91.439184124310216, 41.751057298692388 ], [ -91.43918322599346, 41.754755122104356 ], [ -91.438315993572843, 41.754760358966415 ], [ -91.437948206151205, 41.754762578059562 ], [ -91.434403810890998, 41.75478390166613 ], [ -91.431975123087, 41.754796361424035 ], [ -91.429550632744267, 41.754808743480318 ], [ -91.428093666307689, 41.754816158150987 ], [ -91.427283605111782, 41.754820259380061 ], [ -91.426854882329351, 41.755084350614304 ], [ -91.426558270335903, 41.755240247807521 ], [ -91.42625838393009, 41.755392151050771 ], [ -91.425929682215312, 41.755572555560086 ], [ -91.425924595589478, 41.754827166003793 ], [ -91.425899810280768, 41.751194651004766 ], [ -91.425874701430061, 41.747514375429354 ], [ -91.424640590236564, 41.747517135838144 ], [ -91.424640026249634, 41.747448562462765 ], [ -91.419837020706893, 41.747450715467572 ], [ -91.419595150756962, 41.747450818167756 ], [ -91.419541510392392, 41.743987066982633 ], [ -91.419674788486404, 41.743785418748807 ], [ -91.419753727122711, 41.740225660289802 ], [ -91.424670124873089, 41.740213740882133 ], [ -91.429526387660275, 41.740213240603346 ], [ -91.42986808422269, 41.740213197136541 ], [ -91.434372635003584, 41.740212539213196 ], [ -91.439225992979814, 41.740152934160712 ], [ -91.443923942759866, 41.740132020497541 ], [ -91.444167529925309, 41.740131344147876 ], [ -91.448899709678784, 41.740132095870898 ], [ -91.448856242485775, 41.743287073970542 ], [ -91.44884976982398, 41.743756808027918 ], [ -91.448851249378293, 41.747387170189064 ], [ -91.448852239817015, 41.749817070855052 ], [ -91.444009598632221, 41.749845021611435 ], [ -91.444017423812525, 41.750962128739914 ], [ -91.439184124310216, 41.751057298692388 ] ] ] ] } },
{ "type": "Feature", "properties": { "OBJECTID": 4, "VILLAGE": "OASIS", "Shape_Length": 15893.139380402796, "Shape_Area": 14001075.60296607, "V_AREA": 321 }, "geometry": { "type": "MultiPolygon", "coordinates": [ [ [ [ -91.390544473993444, 41.711085270763405 ], [ -91.385854148227295, 41.711084515185327 ], [ -91.385612428233017, 41.711084046644594 ], [ -91.380829952293453, 41.711068158267203 ], [ -91.380838398465158, 41.70753138575521 ], [ -91.380894317416079, 41.703993284799012 ], [ -91.380897705715242, 41.703779157426347 ], [ -91.380955155500445, 41.700147493558852 ], [ -91.380958930373424, 41.696492965249774 ], [ -91.385611857251277, 41.696525878127019 ], [ -91.385853524458213, 41.696526532223366 ], [ -91.38595238752761, 41.696526370988373 ], [ -91.387724607125776, 41.696523448175896 ], [ -91.390557653936071, 41.696518720837048 ], [ -91.390572953213038, 41.70017386645651 ], [ -91.390560988604534, 41.703508656120817 ], [ -91.390560285103561, 41.70370482932961 ], [ -91.390559905098385, 41.703810695055701 ], [ -91.390546818213522, 41.70745739763511 ], [ -91.390546533536025, 41.707898831079135 ], [ -91.390546320055691, 41.708228642764034 ], [ -91.390544473993444, 41.711085270763405 ] ] ] ] } },
{ "type": "Feature", "properties": { "OBJECTID": 5, "VILLAGE": "SHARON CENTER", "Shape_Length": 21418.523434706007, "Shape_Area": 19678804.329031743, "V_AREA": 452 }, "geometry": { "type": "MultiPolygon", "coordinates": [ [ [ [ -91.66581522207855, 41.57269852773333 ], [ -91.660866625330669, 41.572773446445908 ], [ -91.658387612838823, 41.572810896625924 ], [ -91.658134202498772, 41.572802558323367 ], [ -91.657337497477499, 41.572799891838045 ], [ -91.655901912965817, 41.572790642345296 ], [ -91.651080738595013, 41.572710832544146 ], [ -91.651156153096053, 41.569982061183268 ], [ -91.651181175535015, 41.569076593792794 ], [ -91.651182698107561, 41.5689860333826 ], [ -91.651242177926903, 41.565447366792036 ], [ -91.65609010179277, 41.565506465504441 ], [ -91.656241122400246, 41.565505615304062 ], [ -91.661062783524116, 41.565478383369168 ], [ -91.662754030389138, 41.565482060795382 ], [ -91.662995767476403, 41.565482595972156 ], [ -91.666027108417978, 41.56548926228519 ], [ -91.670961464290798, 41.56543178830259 ], [ -91.670882987537752, 41.568963684415849 ], [ -91.672133338420863, 41.568961113648278 ], [ -91.675846882267734, 41.568953398705197 ], [ -91.675843893337372, 41.56913482707909 ], [ -91.67575134085898, 41.572649678255928 ], [ -91.675656372229298, 41.576255854516383 ], [ -91.670730570358174, 41.576281910328291 ], [ -91.665715070764435, 41.576308227487864 ], [ -91.66581522207855, 41.57269852773333 ] ] ] ] } },
{ "type": "Feature", "properties": { "OBJECTID": 6, "VILLAGE": "SUTLIFF", "Shape_Length": 10949.29161918176, "Shape_Area": 5772468.0758615592, "V_AREA": 133 }, "geometry": { "type": "MultiPolygon", "coordinates": [ [ [ [ -91.392331320049692, 41.838505804450222 ], [ -91.392133249105797, 41.838803832810278 ], [ -91.391722559455857, 41.839344731313744 ], [ -91.391737484823267, 41.839378265068007 ], [ -91.391613868645976, 41.839557240114935 ], [ -91.391591891625836, 41.839676095589816 ], [ -91.391481440444153, 41.839753170916424 ], [ -91.391415503387947, 41.839839332339039 ], [ -91.391357317399354, 41.839940900112012 ], [ -91.390482457649668, 41.840944989294705 ], [ -91.39027624934522, 41.841412092539777 ], [ -91.389950221054207, 41.841914327427894 ], [ -91.389769928468709, 41.842285714590318 ], [ -91.389712795503087, 41.843245039717615 ], [ -91.389558041250254, 41.843798877563806 ], [ -91.387406470890127, 41.843919549449282 ], [ -91.38740017779665, 41.844954667205329 ], [ -91.386765304069485, 41.84524041966425 ], [ -91.38581208594924, 41.845294638684337 ], [ -91.385343854315352, 41.845286650437465 ], [ -91.385158144888806, 41.845602844173257 ], [ -91.384867819496918, 41.846081249895576 ], [ -91.384240768219257, 41.84588301901988 ], [ -91.38351207683499, 41.845743101533351 ], [ -91.380835063213439, 41.84567660424257 ], [ -91.380835990538728, 41.845533652861874 ], [ -91.380851724783639, 41.842032594109291 ], [ -91.380863761401955, 41.841005875479816 ], [ -91.383375697104299, 41.841042858998186 ], [ -91.383440778241464, 41.838578793159542 ], [ -91.383426920379392, 41.838314330555662 ], [ -91.385109293608082, 41.838329999215155 ], [ -91.385788043150853, 41.838336314156919 ], [ -91.385788928601741, 41.838410431596188 ], [ -91.389986974175088, 41.838421636762909 ], [ -91.391677637757013, 41.838421593277019 ], [ -91.391918072387867, 41.838506209580622 ], [ -91.391938502624143, 41.838506189968967 ], [ -91.392331320049692, 41.838505804450222 ] ] ] ] } },
{ "type": "Feature", "properties": { "OBJECTID": 7, "VILLAGE": "FRYTOWN", "Shape_Length": 26923.391410957604, "Shape_Area": 37022859.07192716, "V_AREA": 850 }, "geometry": { "type": "MultiPolygon", "coordinates": [ [ [ [ -91.73683948403999, 41.580739822622704 ], [ -91.734376592035701, 41.580740078229987 ], [ -91.732081098694437, 41.580714596032564 ], [ -91.731839821725984, 41.580711147351039 ], [ -91.72704384092772, 41.580599422993799 ], [ -91.727191009168635, 41.577012471779085 ], [ -91.725188101403447, 41.576966437527972 ], [ -91.722205523762156, 41.576898047258773 ], [ -91.722291241054904, 41.573224812270674 ], [ -91.722374790554241, 41.569644129880729 ], [ -91.72237796213355, 41.569460979614625 ], [ -91.722417611560203, 41.565914350887034 ], [ -91.727374696985947, 41.566040140695748 ], [ -91.727384162293788, 41.56240612209794 ], [ -91.732250036315463, 41.562517855855759 ], [ -91.732254220358897, 41.562946565357024 ], [ -91.732503599246314, 41.562971624126995 ], [ -91.734648707506125, 41.562994809675025 ], [ -91.734647818342467, 41.562527548774845 ], [ -91.737276122759255, 41.562505159621331 ], [ -91.742085426543653, 41.562493483619782 ], [ -91.742092455350331, 41.56623159872062 ], [ -91.743011487814556, 41.566225309671331 ], [ -91.743399522454965, 41.566222651486243 ], [ -91.746885419514797, 41.566198719928344 ], [ -91.746808430865855, 41.569666445573276 ], [ -91.746672850667508, 41.569935836554279 ], [ -91.746619280130489, 41.570472589133381 ], [ -91.746553499604772, 41.572487961527585 ], [ -91.746518953696238, 41.573519332355957 ], [ -91.74630812587786, 41.577049742227622 ], [ -91.74184836102512, 41.577072995032594 ], [ -91.741828594077035, 41.578851578671731 ], [ -91.741817240744211, 41.580042983655389 ], [ -91.741808105970975, 41.580694995151333 ], [ -91.740605664910973, 41.580697851364256 ], [ -91.73683948403999, 41.580739822622704 ] ] ] ] } },
{ "type": "Feature", "properties": { "OBJECTID": 8, "VILLAGE": "RIVER JUNCTION", "Shape_Length": 14132.801600559073, "Shape_Area": 6000900.6158097452, "V_AREA": 138 }, "geometry": { "type": "MultiPolygon", "coordinates": [ [ [ [ -91.496526543796207, 41.498024005605259 ], [ -91.493114710656371, 41.497990626608662 ], [ -91.493134085853669, 41.496682684255454 ], [ -91.493125937914044, 41.496196702609446 ], [ -91.493154944410747, 41.492732963345539 ], [ -91.49320634999907, 41.490404636715198 ], [ -91.493224036739875, 41.489593419706978 ], [ -91.493236095921532, 41.489040314690541 ], [ -91.492542697636452, 41.489048776475471 ], [ -91.492546010225169, 41.487689460333264 ], [ -91.492776017840498, 41.487688982284929 ], [ -91.492777794625809, 41.486951154639044 ], [ -91.493242720566784, 41.486276453811158 ], [ -91.493244275988459, 41.485629000914038 ], [ -91.494294161004504, 41.485630490301155 ], [ -91.494040488521918, 41.486485871023255 ], [ -91.494031430725386, 41.486574072317552 ], [ -91.49403021663673, 41.486662531481628 ], [ -91.494036851694815, 41.486750854552476 ], [ -91.494051306381223, 41.486838648171556 ], [ -91.494073516351136, 41.486925521336758 ], [ -91.494103382719388, 41.487011087143891 ], [ -91.494140772500245, 41.487094964509815 ], [ -91.494234813838744, 41.487249479077057 ], [ -91.494334408517929, 41.487402013584877 ], [ -91.494439482912483, 41.487552455213404 ], [ -91.494745218126113, 41.487973031642717 ], [ -91.495055938449354, 41.488391538115614 ], [ -91.495371619183828, 41.4888079412381 ], [ -91.495541315852861, 41.489034765928167 ], [ -91.49580758655712, 41.489007735473642 ], [ -91.498012902489961, 41.488979584823532 ], [ -91.498010457795033, 41.489728087710972 ], [ -91.498637444612854, 41.489741877291017 ], [ -91.498648594452305, 41.489454789326885 ], [ -91.501597080810001, 41.489519236352344 ], [ -91.5017694150702, 41.489736706754769 ], [ -91.501919358324599, 41.489903638649714 ], [ -91.502047109719328, 41.490035569251226 ], [ -91.502367033958521, 41.490567045875871 ], [ -91.502497745014054, 41.490784187050146 ], [ -91.502840320627854, 41.491622136801908 ], [ -91.502883568495832, 41.492044031545227 ], [ -91.501918013751663, 41.492423387555526 ], [ -91.501745236379861, 41.492618110930032 ], [ -91.498029129428147, 41.492660908542994 ], [ -91.497973239490207, 41.492658367739132 ], [ -91.497969045378625, 41.496095962061744 ], [ -91.497453612073585, 41.496153943699461 ], [ -91.496556831277914, 41.496164173152145 ], [ -91.496574878949446, 41.496646223975411 ], [ -91.496526543796207, 41.498024005605259 ] ] ] ] } },
{ "type": "Feature", "properties": { "OBJECTID": 9, "VILLAGE": "Windham", "Shape_Length": 11129.430975032523, "Shape_Area": 6497499.8184118886, "V_AREA": null }, "geometry": { "type": "MultiPolygon", "coordinates": [ [ [ [ -91.770064088597366, 41.614811034087971 ], [ -91.766627812644217, 41.614794035051411 ], [ -91.766386474402324, 41.614791407722635 ], [ -91.763926909423461, 41.614779171711689 ], [ -91.762736092240189, 41.614774660192218 ], [ -91.76268794139655, 41.611126830627811 ], [ -91.760732630740023, 41.611119787599279 ], [ -91.760718466335632, 41.609733098616381 ], [ -91.760052035342909, 41.60971817005467 ], [ -91.760166822748559, 41.608878155178196 ], [ -91.760175732306465, 41.608246998815133 ], [ -91.760174836841671, 41.608164627156789 ], [ -91.760167429879061, 41.6074837203291 ], [ -91.760161133479414, 41.60690489550808 ], [ -91.76557046257291, 41.606867775438374 ], [ -91.765568036550519, 41.607430576322017 ], [ -91.769886234622888, 41.607452631267179 ], [ -91.769948127417337, 41.609086427433958 ], [ -91.769960739879835, 41.609416517839215 ], [ -91.770026897832906, 41.611162492088006 ], [ -91.770064088597366, 41.614811034087971 ] ] ] ] } }
]
}
